ONEWEB-0012             
1 44057U 19010A   24318.10442470 -.00000394  00000+0 -10648-2 0  9999
2 44057  87.9098 344.5685 0002540  80.3631 279.7787 13.16594253275134
ONEWEB-0010             
1 44058U 19010B   24317.52178484  .00000118  00000+0  27633-3 0  9991
2 44058  87.9105 344.6656 0001769  76.2525 283.8803 13.16596131275076
ONEWEB-0008             
1 44059U 19010C   24317.77511294  .00000115  00000+0  26707-3 0  9997
2 44059  87.9102 344.6161 0001765 100.2965 259.8365 13.16595766275223
ONEWEB-0007             
1 44060U 19010D   24317.88075878 -.00000133  00000+0 -38846-3 0  9993
2 44060  87.9111  14.9314 0002182  90.0385 270.0996 13.15551897274947
ONEWEB-0006             
1 44061U 19010E   24318.41711607 -.00000135  00000+0 -39283-3 0  9999
2 44061  87.9103  14.7940 0001898  89.0506 271.0841 13.15545789275065
ONEWEB-0011             
1 44062U 19010F   24317.93066989  .00000073  00000+0  16003-3 0  9996
2 44062  87.9107  14.8946 0001577  94.8389 265.2921 13.15548997274993
ONEWEB-0013             
1 45131U 20008A   24318.13042108  .00000744  00000+0  21251-2 0  9998
2 45131  87.8638 169.8338 0002364  95.0073 265.1324 13.09399410230785
ONEWEB-0017             
1 45132U 20008B   24318.07190285  .00000737  00000+0  20736-2 0  9991
2 45132  87.8896 151.9881 0001408  75.3406 284.7877 13.10374079232616
